GSAT0214 (GALILEO 18)   
1 41862U 16069D   22227.17842323 -.00000014  00000+0  00000+0 0  9992
2 41862  54.8275 139.9529 0002632 285.1439  74.8530  1.70472585 35742
GSAT0215 (GALILEO 19)   
1 43055U 17079A   22230.60153968  .00000031  00000+0  00000+0 0  9990
2 43055  55.7057 260.0127 0004017 267.0625  92.9459  1.70474388 29142
GSAT0216 (GALILEO 20)   
1 43056U 17079B   22229.72056285  .00000026  00000+0  00000+0 0  9990
2 43056  55.7064 260.0370 0005656 271.7242  88.2639  1.70474171 29146
GSAT0217 (GALILEO 21)   
1 43057U 17079C   22229.35421842  .00000024  00000+0  00000+0 0  9993
2 43057  55.7039 260.0467 0005032 281.1498  78.8465  1.70474489 29124
GSAT0218 (GALILEO 22)   
1 43058U 17079D   22230.16084256  .00000029  00000+0  00000+0 0  9994
2 43058  55.7042 260.0218 0006087 269.3022  90.6815  1.70474462 29161
GSAT0221 (GALILEO 25)   
1 43564U 18060A   22229.47301533 -.00000092  00000+0  00000+0 0  9990
2 43564  57.1967  19.5354 0001869 249.2084 110.7722  1.70476003 25307
GSAT0222 (GALILEO 26)   
1 43565U 18060B   22231.45264121 -.00000090  00000+0  00000+0 0  9991
2 43565  57.1997  19.4823 0001287 263.1212  96.8674  1.70476077 25382
GSAT0219 (GALILEO 23)   
1 43566U 18060C   22231.08660180 -.00000090  00000+0  00000+0 0  9996
2 43566  57.1983  19.4941 0000916 257.9811 102.0115  1.70476064 25356
GSAT0220 (GALILEO 24)   
1 43567U 18060D   22231.30675988 -.00000090  00000+0  00000+0 0  9994
2 43567  57.2002  19.4878 0001340 244.7141 115.2751  1.70476021 25345
GSAT0223 (GALILEO 27)   
1 49809U 21116A   22226.47850171 -.00000092  00000+0  00000+0 0  9998
2 49809  57.1903  19.5164 0003170 152.5321 214.2841  1.70475863  4279
GSAT0224 (GALILEO 28)   
1 49810U 21116B   22229.80240951 -.00000092  00000+0  00000+0 0  9999
2 49810  57.1921  19.4244 0002849 142.7962 216.4553  1.70476083  4340
